[{"OBJECT_NAME":"STARLINK-31420","OBJECT_ID":"2024-046Y","EPOCH":"2026-03-09T11:26:24.936000","MEAN_MOTION":15.30182009,"ECCENTRICITY":0.00013933,"INCLINATION":53.1591,"RA_OF_ASC_NODE":156.5581,"ARG_OF_PERICENTER":29.2244,"MEAN_ANOMALY":330.8835,"EPHEMERIS_TYPE":0,"CLASSIFICATION_TYPE":"U","NORAD_CAT_ID":59223,"ELEMENT_SET_NO":999,"REV_AT_EPOCH":11300,"BSTAR":2.0839412e-5,"MEAN_MOTION_DOT":2.58e-6,"MEAN_MOTION_DDOT":0},{"OBJECT_NAME":"RESURS-P 5","OBJECT_ID":"2024-250A","EPOCH":"2026-03-09T23:31:56.908992","MEAN_MOTION":15.32839945,"ECCENTRICITY":0.00026027,"INCLINATION":97.276,"RA_OF_ASC_NODE":355.9792,"ARG_OF_PERICENTER":63.1234,"MEAN_ANOMALY":297.0274,"EPHEMERIS_TYPE":0,"CLASSIFICATION_TYPE":"U","NORAD_CAT_ID":62430,"ELEMENT_SET_NO":999,"REV_AT_EPOCH":6735,"BSTAR":0.00015600887,"MEAN_MOTION_DOT":4.871e-5,"MEAN_MOTION_DDOT":0}]
